OBJECT_NAME,OBJECT_ID,EPOCH,MEAN_MOTION,ECCENTRICITY,INCLINATION,RA_OF_ASC_NODE,ARG_OF_PERICENTER,MEAN_ANOMALY,EPHEMERIS_TYPE,CLASSIFICATION_TYPE,NORAD_CAT_ID,ELEMENT_SET_NO,REV_AT_EPOCH,BSTAR,MEAN_MOTION_DOT,MEAN_MOTION_DDOT
IRIDIUM 138,2017-083B,2024-12-08T16:19:10.640064,14.34214471,.0002641,86.3985,193.8640,79.7726,280.3768,0,U,43071,999,36451,.11227E-3,.334E-5,0
IRIDIUM 116,2017-083C,2024-12-08T20:34:55.121088,14.34217912,.0001816,86.3997,194.0873,89.5439,270.5965,0,U,43072,999,36457,.18734E-4,.72E-6,0
IRIDIUM 130,2017-083D,2024-12-08T19:49:15.190464,14.34217318,.0001709,86.4007,194.3209,82.6591,277.4799,0,U,43073,999,36451,-.1097E-4,-.11E-6,0
IRIDIUM 151,2017-083E,2024-12-09T03:35:02.743584,14.34218441,.0001952,86.3995,194.0104,91.0831,269.0588,0,U,43074,999,36458,.20435E-3,.592E-5,0
IRIDIUM 134,2017-083F,2024-12-08T08:24:14.995584,14.34218972,.0001788,86.3999,194.3447,85.4381,274.7019,0,U,43075,999,36443,.46117E-4,.149E-5,0
IRIDIUM 137,2017-083G,2024-12-09T03:07:39.566784,14.34216318,.0001788,86.3999,194.1000,101.5649,258.5747,0,U,43076,999,36461,.22467E-3,.649E-5,0
IRIDIUM 141,2017-083H,2024-12-08T13:34:47.419104,14.34220690,.0002231,86.3994,194.1984,80.6984,279.4464,0,U,43077,999,36453,.20303E-3,.588E-5,0
IRIDIUM 153,2017-083J,2024-12-08T22:28:43.456512,14.34217171,.000244,86.3989,162.5704,82.6252,277.5221,0,U,43078,999,36569,-.23807E-4,-.47E-6,0
IRIDIUM 131,2017-083K,2024-12-08T19:58:23.242080,14.34215641,.0002125,86.4001,194.2358,87.6772,272.4667,0,U,43079,999,36450,.20351E-3,.59E-5,0
IRIDIUM 144,2018-030A,2024-12-08T22:37:51.312000,14.34217307,.0001673,86.3988,162.5099,86.3579,273.7808,0,U,43249,999,35055,-.20521E-4,-.38E-6,0
IRIDIUM 149,2018-030B,2024-12-09T02:07:55.305984,14.34217570,.0001747,86.3986,162.4223,95.5827,264.5568,0,U,43250,999,35059,-.90096E-5,-.5E-7,0
IRIDIUM 157,2018-030C,2024-12-08T21:33:55.354176,14.34217553,.0002068,86.3982,162.5425,93.1590,266.9842,0,U,43251,999,35054,.12112E-6,.2E-6,0
IRIDIUM 140,2018-030D,2024-12-09T01:22:16.060512,14.34217717,.0001941,86.3982,162.4905,87.2633,272.8785,0,U,43252,999,35062,.8588E-4,.26E-5,0
IRIDIUM 145,2018-030E,2024-12-09T01:03:59.252256,14.34217380,.0001447,86.3988,162.4689,90.9285,269.2076,0,U,43253,999,35055,-.14428E-4,-.21E-6,0
IRIDIUM 146,2018-030F,2024-12-08T21:15:39.230208,14.34217549,.0001651,86.3979,162.5493,91.2372,268.9012,0,U,43254,999,35054,.13341E-4,.57E-6,0
IRIDIUM 148,2018-030G,2024-12-08T22:10:27.211584,14.34218373,.0001829,86.3983,162.5680,94.6309,265.5096,0,U,43255,999,35058,.43877E-4,.143E-5,0
IRIDIUM 142,2018-030H,2024-12-08T21:24:47.219616,14.34216652,.0001543,86.3979,162.4906,97.2441,262.8930,0,U,43256,999,35054,.70413E-4,.217E-5,0
IRIDIUM 150,2018-030J,2024-12-08T22:19:35.318496,14.34217448,.0001583,86.3985,162.5726,91.5291,268.6087,0,U,43257,999,35057,-.23073E-4,-.45E-6,0
IRIDIUM 143,2018-030K,2024-12-09T01:13:07.229568,14.34217428,.0001356,86.3992,162.5934,89.9766,270.1585,0,U,43258,999,35055,-.10784E-4,-.1E-6,0
IRIDIUM 161,2018-047C,2024-12-08T21:33:32.990400,14.43280651,.0002105,86.4475,320.5251,86.8211,273.3230,0,U,43478,999,34504,.30872E-3,.1059E-4,0
IRIDIUM 152,2018-047D,2024-12-08T22:53:21.882336,14.34221318,.0002328,86.3948,320.3614,84.7082,275.4379,0,U,43479,999,34290,.23213E-3,.67E-5,0
IRIDIUM 147,2018-047E,2024-12-08T23:02:30.321024,14.34217211,.0002543,86.3952,320.3542,88.5292,271.6195,0,U,43480,999,34290,.56276E-4,.177E-5,0
IRIDIUM 110,2018-047F,2024-12-08T21:31:10.298208,14.34217634,.0002612,86.3953,320.4580,82.0912,278.0580,0,U,43481,999,34288,.82495E-4,.251E-5,0
IRIDIUM 162,2018-047G,2024-12-08T23:04:19.393248,14.43281087,.000249,86.4474,320.3965,81.3577,278.7906,0,U,43482,999,34504,.30042E-3,.1031E-4,0
IRIDIUM 160,2018-061A,2024-12-08T21:53:38.501952,14.34217729,.0002224,86.3951,288.8096,89.3919,270.7532,0,U,43569,999,33378,-.10331E-4,-.9E-7,0
IRIDIUM 166,2018-061B,2024-12-08T22:30:09.977472,14.34218780,.000191,86.3951,288.7564,83.9945,276.1468,0,U,43570,999,33381,.11454E-3,.341E-5,0
IRIDIUM 158,2018-061C,2024-12-08T21:44:30.644736,14.34219168,.0002244,86.3952,288.7796,79.0152,281.1296,0,U,43571,999,33377,.26829E-3,.771E-5,0
IRIDIUM 165,2018-061D,2024-12-08T22:21:02.426976,14.34216670,.0002182,86.3954,288.8047,88.4184,271.7262,0,U,43572,999,33380,.97E-4,.291E-5,0
IRIDIUM 155,2018-061E,2024-12-08T21:26:14.377344,14.34220188,.0002048,86.3950,288.7172,77.4652,282.6773,0,U,43573,999,33376,.26957E-3,.775E-5,0
IRIDIUM 154,2018-061F,2024-12-08T22:39:18.525024,14.34217952,.0002212,86.3954,288.8021,88.0574,272.0875,0,U,43574,999,33382,.91218E-4,.275E-5,0
IRIDIUM 163,2018-061G,2024-12-08T22:11:54.504096,14.34218548,.0002257,86.3950,288.7425,80.9115,279.2336,0,U,43575,999,33379,.23557E-3,.68E-5,0
